{"fetched_at":"2026-07-17T17:37:56.755Z","source":"https://celestrak.org/NORAD/elements/gp.php?GROUP=qianfan&FORMAT=JSON","constellation":"qianfan","records":[{"OBJECT_NAME":"QIANFAN-225","OBJECT_ID":"2026-155G","EPOCH":"2026-07-17T06:17:45.682656","CLASSIFICATION_TYPE":"U","MEAN_MOTION":14.22450532,"ECCENTRICITY":0.00291425,"INCLINATION":89.0064,"RA_OF_ASC_NODE":60.712,"ARG_OF_PERICENTER":217.0121,"MEAN_ANOMALY":142.9061,"EPHEMERIS_TYPE":0,"NORAD_CAT_ID":69854,"ELEMENT_SET_NO":999,"REV_AT_EPOCH":167,"BSTAR":0.000016578953,"MEAN_MOTION_DOT":5.1e-7,"MEAN_MOTION_DDOT":0},{"OBJECT_NAME":"QIANFAN-226","OBJECT_ID":"2026-155H","EPOCH":"2026-07-17T01:11:25.219680","CLASSIFICATION_TYPE":"U","MEAN_MOTION":14.19697888,"ECCENTRICITY":0.00329949,"INCLINATION":89.0057,"RA_OF_ASC_NODE":60.7364,"ARG_OF_PERICENTER":217.0924,"MEAN_ANOMALY":142.7986,"EPHEMERIS_TYPE":0,"NORAD_CAT_ID":69855,"ELEMENT_SET_NO":999,"REV_AT_EPOCH":164,"BSTAR":-1.050697,"MEAN_MOTION_DOT":-0.02062008,"MEAN_MOTION_DDOT":0},{"OBJECT_NAME":"QIANFAN-227","OBJECT_ID":"2026-155J","EPOCH":"2026-07-16T23:25:51.051648","CLASSIFICATION_TYPE":"U","MEAN_MOTION":14.22103173,"ECCENTRICITY":0.00268824,"INCLINATION":89.0058,"RA_OF_ASC_NODE":60.7437,"ARG_OF_PERICENTER":217.6767,"MEAN_ANOMALY":142.2542,"EPHEMERIS_TYPE":0,"NORAD_CAT_ID":69856,"ELEMENT_SET_NO":999,"REV_AT_EPOCH":163,"BSTAR":-0.99222952,"MEAN_MOTION_DOT":-0.02035804,"MEAN_MOTION_DDOT":0},{"OBJECT_NAME":"QIANFAN-228","OBJECT_ID":"2026-155K","EPOCH":"2026-07-16T23:26:05.308512","CLASSIFICATION_TYPE":"U","MEAN_MOTION":14.26684449,"ECCENTRICITY":0.00305691,"INCLINATION":89.0065,"RA_OF_ASC_NODE":60.7434,"ARG_OF_PERICENTER":217.385,"MEAN_ANOMALY":142.5218,"EPHEMERIS_TYPE":0,"NORAD_CAT_ID":69857,"ELEMENT_SET_NO":999,"REV_AT_EPOCH":163,"BSTAR":0.000077165452,"MEAN_MOTION_DOT":0.00000202,"MEAN_MOTION_DDOT":0},{"OBJECT_NAME":"QIANFAN-229","OBJECT_ID":"2026-155L","EPOCH":"2026-07-17T06:10:00.187104","CLASSIFICATION_TYPE":"U","MEAN_MOTION":14.26689335,"ECCENTRICITY":0.00306305,"INCLINATION":89.0064,"RA_OF_ASC_NODE":60.7114,"ARG_OF_PERICENTER":216.174,"MEAN_ANOMALY":143.7382,"EPHEMERIS_TYPE":0,"NORAD_CAT_ID":69858,"ELEMENT_SET_NO":999,"REV_AT_EPOCH":167,"BSTAR":0.000012698751,"MEAN_MOTION_DOT":4.5e-7,"MEAN_MOTION_DDOT":0},{"OBJECT_NAME":"QIANFAN-230","OBJECT_ID":"2026-155M","EPOCH":"2026-07-17T01:25:44.773536","CLASSIFICATION_TYPE":"U","MEAN_MOTION":14.21842074,"ECCENTRICITY":0.00292148,"INCLINATION":89.0062,"RA_OF_ASC_NODE":60.737,"ARG_OF_PERICENTER":217.5734,"MEAN_ANOMALY":142.3417,"EPHEMERIS_TYPE":0,"NORAD_CAT_ID":69859,"ELEMENT_SET_NO":999,"REV_AT_EPOCH":164,"BSTAR":0.000041754612,"MEAN_MOTION_DOT":0.00000107,"MEAN_MOTION_DDOT":0},{"OBJECT_NAME":"QIANFAN-231","OBJECT_ID":"2026-155N","EPOCH":"2026-07-17T04:33:37.797984","CLASSIFICATION_TYPE":"U","MEAN_MOTION":14.2609651,"ECCENTRICITY":0.00306933,"INCLINATION":89.0066,"RA_OF_ASC_NODE":60.72,"ARG_OF_PERICENTER":215.761,"MEAN_ANOMALY":144.1529,"EPHEMERIS_TYPE":0,"NORAD_CAT_ID":69860,"ELEMENT_SET_NO":999,"REV_AT_EPOCH":166,"BSTAR":0.000089648965,"MEAN_MOTION_DOT":0.0000023,"MEAN_MOTION_DDOT":0},{"OBJECT_NAME":"QIANFAN-232","OBJECT_ID":"2026-155P","EPOCH":"2026-07-17T06:09:50.626944","CLASSIFICATION_TYPE":"U","MEAN_MOTION":14.26736241,"ECCENTRICITY":0.00305075,"INCLINATION":89.0064,"RA_OF_ASC_NODE":60.7112,"ARG_OF_PERICENTER":216.7976,"MEAN_ANOMALY":143.1124,"EPHEMERIS_TYPE":0,"NORAD_CAT_ID":69861,"ELEMENT_SET_NO":999,"REV_AT_EPOCH":167,"BSTAR":0.000079627625,"MEAN_MOTION_DOT":0.00000208,"MEAN_MOTION_DDOT":0},{"OBJECT_NAME":"QIANFAN-233","OBJECT_ID":"2026-155Q","EPOCH":"2026-07-17T06:09:40.637376","CLASSIFICATION_TYPE":"U","MEAN_MOTION":14.26751957,"ECCENTRICITY":0.00304303,"INCLINATION":89.0065,"RA_OF_ASC_NODE":60.7111,"ARG_OF_PERICENTER":216.6064,"MEAN_ANOMALY":143.3051,"EPHEMERIS_TYPE":0,"NORAD_CAT_ID":69862,"ELEMENT_SET_NO":999,"REV_AT_EPOCH":167,"BSTAR":0.000018911555,"MEAN_MOTION_DOT":6e-7,"MEAN_MOTION_DDOT":0},{"OBJECT_NAME":"QIANFAN-234","OBJECT_ID":"2026-155R","EPOCH":"2026-07-17T06:09:36.011520","CLASSIFICATION_TYPE":"U","MEAN_MOTION":14.26758713,"ECCENTRICITY":0.00304262,"INCLINATION":89.0065,"RA_OF_ASC_NODE":60.7114,"ARG_OF_PERICENTER":216.659,"MEAN_ANOMALY":143.2522,"EPHEMERIS_TYPE":0,"NORAD_CAT_ID":69863,"ELEMENT_SET_NO":999,"REV_AT_EPOCH":167,"BSTAR":0.000076538848,"MEAN_MOTION_DOT":0.00000201,"MEAN_MOTION_DDOT":0},{"OBJECT_NAME":"QIANFAN-235","OBJECT_ID":"2026-155S","EPOCH":"2026-07-17T06:09:31.866048","CLASSIFICATION_TYPE":"U","MEAN_MOTION":14.26764608,"ECCENTRICITY":0.00303815,"INCLINATION":89.0065,"RA_OF_ASC_NODE":60.7113,"ARG_OF_PERICENTER":216.6702,"MEAN_ANOMALY":143.2413,"EPHEMERIS_TYPE":0,"NORAD_CAT_ID":69864,"ELEMENT_SET_NO":999,"REV_AT_EPOCH":167,"BSTAR":0.00006876295,"MEAN_MOTION_DOT":0.00000182,"MEAN_MOTION_DDOT":0},{"OBJECT_NAME":"QIANFAN-236","OBJECT_ID":"2026-155T","EPOCH":"2026-07-17T06:09:28.286496","CLASSIFICATION_TYPE":"U","MEAN_MOTION":14.26769846,"ECCENTRICITY":0.00303523,"INCLINATION":89.0065,"RA_OF_ASC_NODE":60.7114,"ARG_OF_PERICENTER":216.7079,"MEAN_ANOMALY":143.2037,"EPHEMERIS_TYPE":0,"NORAD_CAT_ID":69865,"ELEMENT_SET_NO":999,"REV_AT_EPOCH":167,"BSTAR":0.000085611957,"MEAN_MOTION_DOT":0.00000223,"MEAN_MOTION_DDOT":0},{"OBJECT_NAME":"QIANFAN-237","OBJECT_ID":"2026-155U","EPOCH":"2026-07-17T06:09:22.333536","CLASSIFICATION_TYPE":"U","MEAN_MOTION":14.26778084,"ECCENTRICITY":0.00303264,"INCLINATION":89.0065,"RA_OF_ASC_NODE":60.7114,"ARG_OF_PERICENTER":216.7337,"MEAN_ANOMALY":143.1779,"EPHEMERIS_TYPE":0,"NORAD_CAT_ID":69866,"ELEMENT_SET_NO":999,"REV_AT_EPOCH":166,"BSTAR":0.000081569925,"MEAN_MOTION_DOT":0.00000213,"MEAN_MOTION_DDOT":0},{"OBJECT_NAME":"QIANFAN-238","OBJECT_ID":"2026-155V","EPOCH":"2026-07-17T06:09:17.140896","CLASSIFICATION_TYPE":"U","MEAN_MOTION":14.26785542,"ECCENTRICITY":0.00303042,"INCLINATION":89.0065,"RA_OF_ASC_NODE":60.7113,"ARG_OF_PERICENTER":216.7808,"MEAN_ANOMALY":143.1308,"EPHEMERIS_TYPE":0,"NORAD_CAT_ID":69867,"ELEMENT_SET_NO":999,"REV_AT_EPOCH":167,"BSTAR":0.00008568274,"MEAN_MOTION_DOT":0.00000223,"MEAN_MOTION_DDOT":0}]}
